OBJECT_NAME,OBJECT_ID,EPOCH,MEAN_MOTION,ECCENTRICITY,INCLINATION,RA_OF_ASC_NODE,ARG_OF_PERICENTER,MEAN_ANOMALY,EPHEMERIS_TYPE,CLASSIFICATION_TYPE,NORAD_CAT_ID,ELEMENT_SET_NO,REV_AT_EPOCH,BSTAR,MEAN_MOTION_DOT,MEAN_MOTION_DDOT
IRIDIUM 154,2018-061F,2026-07-23T02:13:22.455264,14.34218177,.00022941,86.3938,41.7867,88.8519,271.2940,0,U,43574,999,41855,.30480271E-4,.105E-5,0
IRIDIUM 163,2018-061G,2026-07-23T01:45:58.420512,14.34218370,.00021143,86.3935,41.7086,88.0586,272.0852,0,U,43575,999,41852,.31109938E-4,.107E-5,0
IRIDIUM 156,2018-061H,2026-07-23T01:09:26.403264,14.34217897,.00021814,86.3936,41.7268,93.2067,266.9379,0,U,43576,999,41851,.50260547E-4,.161E-5,0
IRIDIUM 164,2018-061J,2026-07-23T02:22:30.479232,14.34217786,.00023105,86.3938,41.7464,88.1545,271.9916,0,U,43577,999,41856,.2943647E-5,.28E-6,0
IRIDIUM 159,2018-061K,2026-07-23T01:36:50.428512,14.34217834,.00020815,86.3936,41.6958,87.2677,272.8757,0,U,43578,999,41852,.11172417E-4,.51E-6,0
IRIDIUM 180,2019-002A,2026-07-22T08:51:26.889408,14.34218670,.00020501,86.3996,338.8919,91.3770,268.7660,0,U,43922,999,39403,.59643026E-4,.187E-5,0
IRIDIUM 176,2019-002B,2026-07-23T07:37:48.389088,14.72257327,.00023427,86.6121,338.4337,91.9206,268.2279,0,U,43923,999,40456,.10557796E-3,.69E-5,0
IRIDIUM 168,2019-002C,2026-07-22T15:24:10.916928,14.34218945,.00021933,86.4002,338.8559,91.8821,268.2626,0,U,43924,999,39405,.62965032E-4,.196E-5,0
IRIDIUM 173,2019-002D,2026-07-23T07:50:34.935072,14.34217361,.00020365,86.3997,338.4575,93.1218,267.0210,0,U,43925,999,39413,-.20649442E-4,-.38E-6,0
IRIDIUM 169,2019-002E,2026-07-23T05:06:04.227552,14.38601939,.00021206,86.4231,10.1277,104.4471,255.6962,0,U,43926,999,39540,.93932616E-4,.307E-5,0
IRIDIUM 172,2019-002F,2026-07-23T07:41:26.922336,14.34217850,.00021917,86.4000,338.4680,92.2512,267.8935,0,U,43927,999,39414,-.1520114E-5,.16E-6,0
IRIDIUM 175,2019-002G,2026-07-23T04:20:14.450784,14.43630210,.00055804,86.4502,275.4761,99.9307,260.2525,0,U,43928,999,40417,.63415224E-4,.235E-5,0
IRIDIUM 171,2019-002H,2026-07-23T05:33:34.957440,14.34218727,.00022819,86.4010,338.8152,95.1401,265.0055,0,U,43929,999,39412,.6903662E-4,.213E-5,0
IRIDIUM 170,2019-002J,2026-07-23T07:46:41.170368,14.72257870,.00021892,86.6119,338.4332,89.9587,270.1881,0,U,43930,999,40457,.10411712E-3,.681E-5,0
IRIDIUM 167,2019-002K,2026-07-23T03:43:58.945440,14.34217995,.00023908,86.4000,338.5593,98.6688,261.4779,0,U,43931,999,39411,.58566263E-4,.184E-5,0
IRIDIUM 181,2023-068S,2026-07-23T07:06:49.049856,14.43310115,.00023152,86.4474,41.6886,83.4434,276.7031,0,U,56726,999,16764,.6665442E-4,.245E-5,0
IRIDIUM 177,2023-068T,2026-07-23T03:43:19.992000,14.80031244,.00022597,86.1989,311.7175,99.2133,260.9344,0,U,56727,999,17168,.96856627E-4,.759E-5,0
IRIDIUM 174,2023-068U,2026-07-23T07:28:44.472576,14.72253163,.00019033,86.6123,338.5888,95.1192,265.0242,0,U,56728,999,17133,.94113319E-4,.618E-5,0
IRIDIUM 178,2023-068V,2026-07-22T09:36:35.664192,14.80021379,.00022755,86.6543,10.6427,92.1624,267.9858,0,U,56729,999,17157,.90403078E-4,.71E-5,0
IRIDIUM 179,2023-068W,2026-07-23T04:57:12.505536,14.80025782,.00024115,86.6773,19.3913,94.2214,265.9283,0,U,56730,999,17169,.34786843E-4,.289E-5,0
