IRIDIUM 154             
1 43574U 18061F   26204.09262101  .00000105  00000+0  30480-4 0  9998
2 43574  86.3938  41.7867 0002294  88.8519 271.2940 14.34218177418557
IRIDIUM 163             
1 43575U 18061G   26204.07359283  .00000107  00000+0  31110-4 0  9998
2 43575  86.3935  41.7086 0002114  88.0586 272.0852 14.34218370418528
IRIDIUM 156             
1 43576U 18061H   26204.04822226  .00000161  00000+0  50261-4 0  9996
2 43576  86.3936  41.7268 0002181  93.2067 266.9379 14.34217897418516
IRIDIUM 164             
1 43577U 18061J   26204.09896388  .00000028  00000+0  29436-5 0  9995
2 43577  86.3938  41.7464 0002310  88.1545 271.9916 14.34217786418560
IRIDIUM 159             
1 43578U 18061K   26204.06725033  .00000051  00000+0  11172-4 0  9994
2 43578  86.3936  41.6958 0002081  87.2677 272.8757 14.34217834418520
IRIDIUM 180             
1 43922U 19002A   26203.36906122  .00000187  00000+0  59643-4 0  9990
2 43922  86.3996 338.8919 0002050  91.3770 268.7660 14.34218670394038
IRIDIUM 176             
1 43923U 19002B   26204.31792117  .00000690  00000+0  10558-3 0  9994
2 43923  86.6121 338.4337 0002342  91.9206 268.2279 14.72257327404561
IRIDIUM 168             
1 43924U 19002C   26203.64179302  .00000196  00000+0  62965-4 0  9996
2 43924  86.4002 338.8559 0002193  91.8821 268.2626 14.34218945394053
IRIDIUM 173             
1 43925U 19002D   26204.32679323 -.00000038  00000+0 -20649-4 0  9991
2 43925  86.3997 338.4575 0002036  93.1218 267.0210 14.34217361394137
IRIDIUM 169             
1 43926U 19002E   26204.21254893  .00000307  00000+0  93933-4 0  9994
2 43926  86.4231  10.1277 0002120 104.4471 255.6962 14.38601939395404
IRIDIUM 172             
1 43927U 19002F   26204.32045049  .00000016  00000+0 -15201-5 0  9999
2 43927  86.4000 338.4680 0002191  92.2512 267.8935 14.34217850394147
IRIDIUM 175             
1 43928U 19002G   26204.18072281  .00000235  00000+0  63415-4 0  9993
2 43928  86.4502 275.4761 0005580  99.9307 260.2525 14.43630210404172
IRIDIUM 171             
1 43929U 19002H   26204.23165460  .00000213  00000+0  69037-4 0  9994
2 43929  86.4010 338.8152 0002281  95.1401 265.0055 14.34218727394122
IRIDIUM 170             
1 43930U 19002J   26204.32408762  .00000681  00000+0  10412-3 0  9992
2 43930  86.6119 338.4332 0002189  89.9587 270.1881 14.72257870404574
IRIDIUM 167             
1 43931U 19002K   26204.15554335  .00000184  00000+0  58566-4 0  9993
2 43931  86.4000 338.5593 0002390  98.6688 261.4779 14.34217995394114
IRIDIUM 181             
1 56726U 23068S   26204.29640104  .00000245  00000+0  66654-4 0  9996
2 56726  86.4474  41.6886 0002315  83.4434 276.7031 14.43310115167644
IRIDIUM 177             
1 56727U 23068T   26204.15509250  .00000759  00000+0  96857-4 0  9996
2 56727  86.1989 311.7175 0002259  99.2133 260.9344 14.80031244171688
IRIDIUM 174             
1 56728U 23068U   26204.31162584  .00000618  00000+0  94113-4 0  9997
2 56728  86.6123 338.5888 0001903  95.1192 265.0242 14.72253163171339
IRIDIUM 178             
1 56729U 23068V   26203.40041278  .00000710  00000+0  90403-4 0  9994
2 56729  86.6543  10.6427 0002275  92.1624 267.9858 14.80021379171574
IRIDIUM 179             
1 56730U 23068W   26204.20639474  .00000289  00000+0  34787-4 0  9990
2 56730  86.6773  19.3913 0002411  94.2214 265.9283 14.80025782171692
